[{"OBJECT_NAME":"STARLINK-32510","OBJECT_ID":"2024-216J","EPOCH":"2026-03-09T12:38:39.435648","MEAN_MOTION":15.27549679,"ECCENTRICITY":9.599e-5,"INCLINATION":42.9971,"RA_OF_ASC_NODE":264.7697,"ARG_OF_PERICENTER":195.8026,"MEAN_ANOMALY":164.2795,"EPHEMERIS_TYPE":0,"CLASSIFICATION_TYPE":"U","NORAD_CAT_ID":62040,"ELEMENT_SET_NO":999,"REV_AT_EPOCH":7376,"BSTAR":0.00093471187,"MEAN_MOTION_DOT":0.00025524,"MEAN_MOTION_DDOT":0},{"OBJECT_NAME":"BANDWAGON-4 OBJECT Q","OBJECT_ID":"2025-248Q","EPOCH":"2026-03-08T23:44:19.819392","MEAN_MOTION":15.23978167,"ECCENTRICITY":0.00112804,"INCLINATION":45.4076,"RA_OF_ASC_NODE":295.4821,"ARG_OF_PERICENTER":209.4727,"MEAN_ANOMALY":150.5526,"EPHEMERIS_TYPE":0,"CLASSIFICATION_TYPE":"U","NORAD_CAT_ID":66307,"ELEMENT_SET_NO":999,"REV_AT_EPOCH":1930,"BSTAR":0.0009224217,"MEAN_MOTION_DOT":0.00022547,"MEAN_MOTION_DDOT":0}]
